1 43013U 17073A   26089.48051480  .00000080  00000+0  58860-4 0  9992
2 43013  98.7716  29.6639 0001929 109.9883 250.1501 14.19541441433306
